0 SL-8 DEB
1 16866U 86052D   13281.61411837  .00008637  00000-0  68206-3 0  5944
2 16866 074.0002 325.3517 0012286 329.5425 146.6784 15.00761864455230
0 SL-8 DEB
1 16866U 86052D   13282.47863501  .00014417  00000-0  11342-2 0  5950
2 16866 074.0005 323.5885 0012348 327.5634 137.4656 15.00795878455362
0 SL-8 DEB
1 16866U 86052D   13283.52576501  .00016820  00000-0  13209-2 0  5974
2 16866 073.9978 321.4557 0012123 325.4036 034.6861 15.00794475455522
0 SL-8 DEB
1 16866U 86052D   13283.80243167  .00015356  00000-0  12068-2 0  5968
2 16866 074.0008 320.8889 0012386 324.9759 089.3711 15.00824142455566
0 SL-8 DEB
1 16866U 86052D   13287.20391537  .00010383  00000-0  81642-3 0  5983
2 16866 073.9997 313.9516 0012465 318.2219 106.8117 15.00881970456070
0 SL-8 DEB
1 16866U 86052D   13288.47854515  .00018303  00000-0  14335-2 0  5998
2 16866 073.9994 311.3516 0012596 315.4167 153.8310 15.00920116456269
0 SL-8 DEB
1 16866U 86052D   13290.14524432  .00017063  00000-0  13353-2 0  6001
2 16866 073.9990 307.9511 0012591 311.5009 159.7707 15.00964754456517
0 SL-8 DEB
1 16866U 86052D   13291.48712550  .00013817  00000-0  10815-2 0  6013
2 16866 073.9990 305.2133 0012644 308.7211 210.3724 15.00996128456715
0 SL-8 DEB
1 16866U 86052D   13293.54252567  .00015282  00000-0  11938-2 0  6025
2 16866 073.9989 301.0193 0012537 304.6667 156.4859 15.01052491457025
0 SL-8 DEB
1 16866U 86052D   13295.48643674  .00020297  00000-0  15814-2 0  6033
2 16866 073.9991 297.0525 0012461 300.6449 220.7095 15.01100087457315
